STARLINK-3855           
1 52474U 22049Z   26068.93364142  .01398953  10166-2  32666-2 0  9992
2 52474  53.2146  35.3459 0000656  86.0602 274.0503 15.96637279212600
2024-095D               
1 59813U 24095D   26067.82167814  .00880717  35875-3  19859-2 0  9990
2 59813  97.5285 171.9725 0006184 265.8752  94.1818 15.97675140100759
