[{"OBJECT_NAME":"STARLINK-3855","OBJECT_ID":"2022-049Z","EPOCH":"2026-03-09T22:24:26.618688","MEAN_MOTION":15.96637279,"ECCENTRICITY":6.565e-5,"INCLINATION":53.2146,"RA_OF_ASC_NODE":35.3459,"ARG_OF_PERICENTER":86.0602,"MEAN_ANOMALY":274.0503,"EPHEMERIS_TYPE":0,"CLASSIFICATION_TYPE":"U","NORAD_CAT_ID":52474,"ELEMENT_SET_NO":999,"REV_AT_EPOCH":21260,"BSTAR":0.0032665579,"MEAN_MOTION_DOT":0.01398953,"MEAN_MOTION_DDOT":0.0010166157},{"OBJECT_NAME":"OBJECT D","OBJECT_ID":"2024-095D","EPOCH":"2026-03-08T19:43:12.991296","MEAN_MOTION":15.9767514,"ECCENTRICITY":0.00061844,"INCLINATION":97.5285,"RA_OF_ASC_NODE":171.9725,"ARG_OF_PERICENTER":265.8752,"MEAN_ANOMALY":94.1818,"EPHEMERIS_TYPE":0,"CLASSIFICATION_TYPE":"U","NORAD_CAT_ID":59813,"ELEMENT_SET_NO":999,"REV_AT_EPOCH":10075,"BSTAR":0.0019859077,"MEAN_MOTION_DOT":0.00880717,"MEAN_MOTION_DDOT":0.00035874847}]
